{"fetched_at":"2026-07-16T06:43:12.626Z","source":"https://celestrak.org/NORAD/elements/gp.php?NAME=PLEIADES&FORMAT=JSON","constellation":"pleiades-neo","records":[{"OBJECT_NAME":"PLEIADES NEO 3","OBJECT_ID":"2021-034A","EPOCH":"2026-07-15T22:54:24.111072","CLASSIFICATION_TYPE":"U","MEAN_MOTION":14.81666791,"ECCENTRICITY":0.00013227,"INCLINATION":97.8945,"RA_OF_ASC_NODE":271.3069,"ARG_OF_PERICENTER":94.748,"MEAN_ANOMALY":265.3884,"EPHEMERIS_TYPE":0,"NORAD_CAT_ID":48268,"ELEMENT_SET_NO":999,"REV_AT_EPOCH":28191,"BSTAR":-2.42025e-7,"MEAN_MOTION_DOT":-5.4e-7,"MEAN_MOTION_DDOT":0},{"OBJECT_NAME":"PLEIADES NEO 4","OBJECT_ID":"2021-073E","EPOCH":"2026-07-15T22:05:46.008096","CLASSIFICATION_TYPE":"U","MEAN_MOTION":14.81674001,"ECCENTRICITY":0.00013648,"INCLINATION":97.8944,"RA_OF_ASC_NODE":271.2698,"ARG_OF_PERICENTER":92.0813,"MEAN_ANOMALY":268.0557,"EPHEMERIS_TYPE":0,"NORAD_CAT_ID":49070,"ELEMENT_SET_NO":999,"REV_AT_EPOCH":26562,"BSTAR":0.000086254388,"MEAN_MOTION_DOT":0.00000627,"MEAN_MOTION_DDOT":0}]}
